{
    "links": {
        "self": "http://www.neowsapp.com/rest/v1/neo/3843858?api_key=iIulBulltgU6a56xZRHN4H3l9WmuAYTsLGpBGhQ2"
    },
    "id": "3843858",
    "neo_reference_id": "3843858",
    "name": "(2019 RU3)",
    "designation": "2019 RU3",
    "nasa_jpl_url": "http://ssd.jpl.nasa.gov/sbdb.cgi?sstr=3843858",
    "absolute_magnitude_h": 18.2,
    "estimated_diameter": {
        "kilometers": {
            "estimated_diameter_min": 0.6089126221,
            "estimated_diameter_max": 1.3615700154
        },
        "meters": {
            "estimated_diameter_min": 608.9126221057,
            "estimated_diameter_max": 1361.5700153859
        },
        "miles": {
            "estimated_diameter_min": 0.3783606449,
            "estimated_diameter_max": 0.846040122
        },
        "feet": {
            "estimated_diameter_min": 1997.7448871092,
            "estimated_diameter_max": 4467.0933692788
        }
    },
    "is_potentially_hazardous_asteroid": true,
    "close_approach_data": [
        {
            "close_approach_date": "2011-06-20",
            "close_approach_date_full": "2011-Jun-20 06:34",
            "epoch_date_close_approach": 1308551640000,
            "relative_velocity": {
                "kilometers_per_second": "31.4080150825",
                "kilometers_per_hour": "113068.8542969248",
                "miles_per_hour": "70256.5889379975"
            },
            "miss_distance": {
                "astronomical": "0.1074648497",
                "lunar": "41.8038265333",
                "kilometers": "16076512.614990139",
                "miles": "9989481.7205323582"
            },
            "orbiting_body": "Venus"
        },
        {
            "close_approach_date": "2019-10-08",
            "close_approach_date_full": "2019-Oct-08 06:13",
            "epoch_date_close_approach": 1570515180000,
            "relative_velocity": {
                "kilometers_per_second": "44.0445647792",
                "kilometers_per_hour": "158560.4332052608",
                "miles_per_hour": "98523.2869546799"
            },
            "miss_distance": {
                "astronomical": "0.4706874982",
                "lunar": "183.0974367998",
                "kilometers": "70413847.166348834",
                "miles": "43753135.7693045492"
            },
            "orbiting_body": "Earth"
        },
        {
            "close_approach_date": "2021-10-29",
            "close_approach_date_full": "2021-Oct-29 05:10",
            "epoch_date_close_approach": 1635484200000,
            "relative_velocity": {
                "kilometers_per_second": "31.0199686923",
                "kilometers_per_hour": "111671.8872923873",
                "miles_per_hour": "69388.5679678725"
            },
            "miss_distance": {
                "astronomical": "0.0526620114",
                "lunar": "20.4855224346",
                "kilometers": "7878124.735355718",
                "miles": "4895239.7152681884"
            },
            "orbiting_body": "Earth"
        },
        {
            "close_approach_date": "2023-11-17",
            "close_approach_date_full": "2023-Nov-17 19:34",
            "epoch_date_close_approach": 1700249640000,
            "relative_velocity": {
                "kilometers_per_second": "20.1602595562",
                "kilometers_per_hour": "72576.9344023528",
                "miles_per_hour": "45096.4846012841"
            },
            "miss_distance": {
                "astronomical": "0.4616846409",
                "lunar": "179.5953253101",
                "kilometers": "69067038.890354883",
                "miles": "42916267.9126800654"
            },
            "orbiting_body": "Earth"
        },
        {
            "close_approach_date": "2024-01-21",
            "close_approach_date_full": "2024-Jan-21 13:39",
            "epoch_date_close_approach": 1705844340000,
            "relative_velocity": {
                "kilometers_per_second": "35.7555457209",
                "kilometers_per_hour": "128719.9645951507",
                "miles_per_hour": "79981.5802230257"
            },
            "miss_distance": {
                "astronomical": "0.0881237983",
                "lunar": "34.2801575387",
                "kilometers": "13183132.521989621",
                "miles": "8191618.6987579298"
            },
            "orbiting_body": "Merc"
        }
    ],
    "orbital_data": {
        "orbit_id": "5",
        "orbit_determination_date": "2019-10-14 05:45:16",
        "first_observation_date": "2019-09-04",
        "last_observation_date": "2019-10-10",
        "data_arc_in_days": 36,
        "observations_used": 41,
        "orbit_uncertainty": "7",
        "minimum_orbit_intersection": ".0499186",
        "jupiter_tisserand_invariant": "3.778",
        "epoch_osculation": "2459000.5",
        "eccentricity": ".7762270063574673",
        "semi_major_axis": "1.628829456641713",
        "inclination": "34.21644816440971",
        "ascending_node_longitude": "40.22075673015595",
        "orbital_period": "759.2972885045039",
        "perihelion_distance": ".364488043645856",
        "perihelion_argument": "110.7281987744373",
        "aphelion_distance": "2.89317086963757",
        "perihelion_time": "2458800.691256265242",
        "mean_anomaly": "94.73383987210981",
        "mean_motion": ".4741225939434717",
        "equinox": "J2000",
        "orbit_class": {
            "orbit_class_type": "APO",
            "orbit_class_description": "Near-Earth asteroid orbits which cross the Earth’s orbit similar to that of 1862 Apollo",
            "orbit_class_range": "a (semi-major axis) > 1.0 AU; q (perihelion) < 1.017 AU"
        }
    },
    "is_sentry_object": false
}